{"type":"FeatureCollection","features":[{"type":"Feature","properties":{},"id":22,"geometry":{"type":"Polygon","coordinates":[[[-62.982839,-7.309598],[-62.972549,-7.283135],[-62.959209,-7.275951],[-62.945107,-7.263475],[-62.936341,-7.252511],[-62.934727,-7.249802],[-62.91741,-7.254279],[-62.922133,-7.269167],[-62.926751,-7.283637],[-62.931366,-7.3033],[-62.936747,-7.330816],[-62.946903,-7.358356],[-62.958224,-7.371127],[-62.977592,-7.390047],[-62.997449,-7.374112],[-62.992296,-7.362386],[-62.987597,-7.342391],[-62.986081,-7.32871],[-62.983937,-7.31418],[-62.982839,-7.309598]]]}}]}