{"type":"FeatureCollection","features":[{"type":"Feature","properties":{},"id":24,"geometry":{"type":"Polygon","coordinates":[[[-62.883805,-7.049428],[-62.87426,-7.026854],[-62.861466,-7.013753],[-62.841767,-6.999442],[-62.835675,-7.015567],[-62.843392,-7.02625],[-62.845219,-7.043382],[-62.845626,-7.056662],[-62.844407,-7.070366],[-62.843595,-7.078428],[-62.848077,-7.095329],[-62.863026,-7.124555],[-62.88617,-7.112864],[-62.881962,-7.103677],[-62.878736,-7.089896],[-62.876912,-7.076951],[-62.881189,-7.056267],[-62.883805,-7.049428]]]}}]}