{"type":"FeatureCollection","features":[{"type":"Feature","properties":{},"id":18,"geometry":{"type":"Polygon","coordinates":[[[-62.919615,-7.764035],[-62.943737,-7.777051],[-62.939677,-7.791012],[-62.93896,-7.803316],[-62.936811,-7.813017],[-62.920455,-7.845736],[-62.905115,-7.880619],[-62.896398,-7.897196],[-62.893482,-7.905884],[-62.864144,-7.899538],[-62.878644,-7.875154],[-62.890784,-7.849767],[-62.90184,-7.832978],[-62.907837,-7.818579],[-62.912387,-7.801363],[-62.917073,-7.779763],[-62.919615,-7.764035]]]}}]}