{"type":"FeatureCollection","features":[{"type":"Feature","properties":{},"id":16,"geometry":{"type":"Polygon","coordinates":[[[-63.070488,-8.192855],[-63.07632,-8.168404],[-63.056764,-8.16297],[-63.033091,-8.151084],[-63.023141,-8.135461],[-63.019024,-8.120856],[-62.987804,-8.102515],[-62.964817,-8.093684],[-62.956583,-8.082135],[-62.953791,-8.076794],[-62.937356,-8.084259],[-62.949731,-8.109336],[-62.965575,-8.151628],[-63.006783,-8.17109],[-63.014249,-8.177527],[-63.032216,-8.18692],[-63.057263,-8.190972],[-63.070488,-8.192855]]]}}]}