{"type":"FeatureCollection","features":[{"type":"Feature","properties":{},"id":8,"geometry":{"type":"Polygon","coordinates":[[[-63.488618,-8.447081],[-63.501601,-8.435324],[-63.550233,-8.465037],[-63.559709,-8.47113],[-63.577952,-8.469021],[-63.588748,-8.471148],[-63.597209,-8.479517],[-63.604613,-8.492245],[-63.603908,-8.50445],[-63.60065,-8.521804],[-63.588149,-8.533364],[-63.568162,-8.548945],[-63.55824,-8.559572],[-63.538774,-8.551181],[-63.547759,-8.532424],[-63.542268,-8.509224],[-63.541294,-8.503473],[-63.537361,-8.4876],[-63.510928,-8.473595],[-63.487602,-8.448591],[-63.488618,-8.447081]]]}}]}