{"type":"FeatureCollection","features":[{"type":"Feature","properties":{},"id":35,"geometry":{"type":"Polygon","coordinates":[[[-61.874598,-6.244862],[-61.853719,-6.240163],[-61.841703,-6.254065],[-61.848794,-6.263464],[-61.869083,-6.277952],[-61.884644,-6.283043],[-61.901781,-6.282456],[-61.905917,-6.282847],[-61.913699,-6.286113],[-61.92926,-6.283371],[-61.943048,-6.278085],[-61.955496,-6.270442],[-61.963943,-6.265182],[-61.966894,-6.26407],[-61.96323,-6.241006],[-61.926016,-6.238932],[-61.874598,-6.244862]]]}}]}