{"type":"FeatureCollection","features":[{"type":"Feature","properties":{},"id":45,"geometry":{"type":"Polygon","coordinates":[[[-60.709576,-5.294105],[-60.690789,-5.291372],[-60.682043,-5.292462],[-60.680052,-5.310408],[-60.691026,-5.314995],[-60.698733,-5.323837],[-60.704932,-5.332261],[-60.713532,-5.352605],[-60.71396,-5.366629],[-60.720082,-5.382027],[-60.727009,-5.392453],[-60.729493,-5.406034],[-60.753618,-5.411289],[-60.758659,-5.393506],[-60.760522,-5.381177],[-60.761001,-5.36571],[-60.755557,-5.346232],[-60.752495,-5.339118],[-60.743676,-5.315402],[-60.73491,-5.305535],[-60.709576,-5.294105]]]}}]}