{"type":"FeatureCollection","features":[{"type":"Feature","properties":{},"id":43,"geometry":{"type":"Polygon","coordinates":[[[-60.927493,-5.549836],[-60.909017,-5.56964],[-60.900015,-5.563039],[-60.883908,-5.555023],[-60.864958,-5.542292],[-60.854535,-5.53569],[-60.8299,-5.519186],[-60.824686,-5.516267],[-60.840542,-5.49873],[-60.85102,-5.500391],[-60.873628,-5.502165],[-60.887218,-5.506498],[-60.892208,-5.511994],[-60.900746,-5.521827],[-60.91102,-5.534947],[-60.921695,-5.544778],[-60.927493,-5.549836]]]}}]}