{"type":"FeatureCollection","features":[{"type":"Feature","properties":{},"id":37,"geometry":{"type":"Polygon","coordinates":[[[-61.801511,-6.091102],[-61.830764,-6.100944],[-61.839292,-6.108717],[-61.843281,-6.116209],[-61.8443,-6.130096],[-61.841123,-6.16816],[-61.822565,-6.169452],[-61.821265,-6.151237],[-61.814764,-6.142541],[-61.802944,-6.142423],[-61.783559,-6.148299],[-61.770356,-6.147387],[-61.761953,-6.136205],[-61.75495,-6.12255],[-61.755181,-6.113004],[-61.758787,-6.097667],[-61.757701,-6.090652],[-61.757436,-6.086358],[-61.749785,-6.080111],[-61.76225,-6.066662],[-61.77426,-6.076102],[-61.790018,-6.086561],[-61.801511,-6.091102]]]}}]}