{"type":"FeatureCollection","features":[{"type":"Feature","properties":{},"id":41,"geometry":{"type":"Polygon","coordinates":[[[-61.647983,-5.873933],[-61.65081,-5.857742],[-61.664121,-5.860143],[-61.673638,-5.860006],[-61.690889,-5.865273],[-61.702104,-5.872655],[-61.71249,-5.886914],[-61.714116,-5.902081],[-61.712742,-5.917701],[-61.703439,-5.940743],[-61.696159,-5.950018],[-61.67888,-5.941715],[-61.682181,-5.925108],[-61.673833,-5.902322],[-61.673607,-5.887577],[-61.667337,-5.879139],[-61.650863,-5.876448],[-61.647983,-5.873933]]]}}]}