{"type":"FeatureCollection","features":[{"type":"Feature","properties":{},"id":33,"geometry":{"type":"Polygon","coordinates":[[[-62.033003,-6.280815],[-62.041791,-6.276329],[-62.074093,-6.245873],[-62.096181,-6.226039],[-62.081931,-6.21022],[-62.066255,-6.217539],[-62.047491,-6.224151],[-62.027302,-6.233123],[-61.997138,-6.238317],[-61.989136,-6.239903],[-61.995292,-6.255401],[-62.004886,-6.253812],[-62.008165,-6.261998],[-62.012512,-6.274791],[-62.022635,-6.280529],[-62.030206,-6.28075],[-62.033003,-6.280815]]]}}]}