{"type":"FeatureCollection","features":[{"type":"Feature","properties":{},"id":28,"geometry":{"type":"Polygon","coordinates":[[[-62.46214,-6.785448],[-62.470847,-6.779025],[-62.463135,-6.763708],[-62.45393,-6.765932],[-62.444228,-6.763461],[-62.421092,-6.759262],[-62.4034,-6.762121],[-62.391004,-6.7558],[-62.384946,-6.752174],[-62.373389,-6.768542],[-62.387409,-6.774938],[-62.391576,-6.781522],[-62.39385,-6.792245],[-62.397639,-6.800146],[-62.412133,-6.813795],[-62.4271,-6.807776],[-62.452296,-6.790657],[-62.46214,-6.785448]]]}}]}