{"type":"FeatureCollection","features":[{"type":"Feature","properties":{},"id":4,"geometry":{"type":"Polygon","coordinates":[[[-59.922852,-4.804932],[-59.906244,-4.804496],[-59.905868,-4.80986],[-59.907683,-4.821274],[-59.906984,-4.844483],[-59.91282,-4.853442],[-59.923702,-4.862196],[-59.930223,-4.867578],[-59.941574,-4.874392],[-59.968519,-4.880278],[-59.981448,-4.884774],[-59.996262,-4.858384],[-59.972576,-4.836122],[-59.961838,-4.828692],[-59.93724,-4.821802],[-59.924502,-4.814784],[-59.923107,-4.809501],[-59.922852,-4.804932]]]}}]}