{"type":"FeatureCollection","features":[{"type":"Feature","properties":{},"id":9,"geometry":{"type":"Polygon","coordinates":[[[-59.848758,-4.461459],[-59.824189,-4.470779],[-59.8315,-4.485714],[-59.842433,-4.506178],[-59.859185,-4.545516],[-59.903237,-4.614467],[-59.93774,-4.618152],[-59.936237,-4.599213],[-59.935923,-4.57901],[-59.930895,-4.56648],[-59.911963,-4.535856],[-59.89633,-4.517784],[-59.899212,-4.491204],[-59.89633,-4.481386],[-59.887853,-4.472704],[-59.85879,-4.467222],[-59.848758,-4.461459]]]}}]}