{"type":"FeatureCollection","features":[{"type":"Feature","properties":{},"id":5,"geometry":{"type":"Polygon","coordinates":[[[-58.760062,-3.297118],[-58.716617,-3.282004],[-58.688313,-3.266889],[-58.655108,-3.247658],[-58.627776,-3.242377],[-58.609378,-3.239653],[-58.579112,-3.210628],[-58.53889,-3.231304],[-58.550439,-3.25675],[-58.553227,-3.302869],[-58.554023,-3.331494],[-58.587293,-3.37146],[-58.613542,-3.394751],[-58.684998,-3.39366],[-58.714528,-3.387109],[-58.784388,-3.36228],[-58.778438,-3.308031],[-58.760062,-3.297118]]]}}]}